NORAD_CAT_ID,OBJECT_NAME,OBJECT_TYPE,EPOCH,MEAN_MOTION,ECCENTRICITY,INCLINATION,RA_OF_ASC_NODE,ARG_OF_PERICENTER,MEAN_ANOMALY,BSTAR,MEAN_MOTION_DOT,MEAN_MOTION_DDOT,TLE_LINE0,TLE_LINE1,TLE_LINE2,SEMIMAJOR_AXIS,PERIOD,APOGEE,PERIGEE,DECAYED
48148,STARLINK-2491,PAYLOAD,2022-03-11 20:13:44,15.06395076,0.00012969999999999998,53.0528,240.6454,76.2836,283.8297,0.00012852,1.633e-05,0.0,0 STARLINK-2491,1 48148U 21027BJ  22070.84288033  .00001633  00000-0  12852-3 0  9998,2 48148  53.0528 240.6454 0001297  76.2836 283.8297 15.06395076 52521,6925.364000000001,95.59200000000001,548.127,546.33,0.0
48148,STARLINK-2491,PAYLOAD,2022-03-12 10:33:37,15.06389037,0.0001312,53.0525,237.9644,77.0461,283.0675,2.8774e-05,1.47e-06,0.0,0 STARLINK-2491,1 48148U 21027BJ  22071.44001163  .00000147  00000-0  28774-4 0  9992,2 48148  53.0525 237.9644 0001312  77.0461 283.0675 15.06389037 52228,6925.382,95.59299999999999,548.156,546.339,0.0
48148,STARLINK-2491,PAYLOAD,2022-03-12 20:06:51,15.06393267,0.0001365,53.0534,236.1781,82.8766,277.2378,6.4751999999999994e-06,-1.85e-06,0.0,0 STARLINK-2491,1 48148U 21027BJ  22071.83809117 -.00000185  00000-0  64752-5 0  9990,2 48148  53.0534 236.1781 0001365  82.8766 277.2378 15.06393267 52675,6925.369000000002,95.59299999999999,548.18,546.289,0.0
48148,STARLINK-2491,PAYLOAD,2022-03-12 23:17:55,15.0639774,0.0001276,53.0527,235.5817,77.8429,282.2703,4.7583e-05,4.27e-06,0.0,0 STARLINK-2491,1 48148U 21027BJ  22071.97078108  .00000427  00000-0  47583-4 0  9993,2 48148  53.0527 235.5817 0001276  77.8429 282.2703 15.06397740 52309,6925.355,95.59200000000001,548.104,546.337,0.0
48148,STARLINK-2491,PAYLOAD,2022-03-13 10:26:41,15.06399045,0.0001264,53.0528,233.4965,75.1971,284.9158,0.00011816,1.479e-05,0.0,0 STARLINK-2491,1 48148U 21027BJ  22072.43520701  .00001479  00000-0  11816-3 0  9993,2 48148  53.0528 233.4965 0001264  75.1971 284.9158 15.06399045 52764,6925.351,95.59200000000001,548.092,546.341,0.0
48148,STARLINK-2491,PAYLOAD,2022-03-13 19:59:55,15.06409845,0.00012690000000000002,53.0517,231.7095,72.83800000000002,287.2748,0.00031882,4.472e-05,0.0,0 STARLINK-2491,1 48148U 21027BJ  22072.83328457  .00004472  00000-0  31882-3 0  9992,2 48148  53.0517 231.7095 0001269  72.8380 287.2748 15.06409845 52435,6925.318,95.59200000000001,548.062,546.305,0.0
48148,STARLINK-2491,PAYLOAD,2022-03-13 21:35:28,15.06399127,0.00012319999999999999,53.0515,231.4113,63.3239,296.7876,0.00014793,1.923e-05,0.0,0 STARLINK-2491,1 48148U 21027BJ  22072.89963640  .00001923  00000-0  14793-3 0  9997,2 48148  53.0515 231.4113 0001232  63.3239 296.7876 15.06399127 52831,6925.351,95.59200000000001,548.069,546.363,0.0
48148,STARLINK-2491,PAYLOAD,2022-03-14 03:57:38,15.06398598,0.00010180000000000001,53.0515,230.2185,84.0314,276.0791,0.00021556,2.931e-05,0.0,0 STARLINK-2491,1 48148U 21027BJ  22073.16502386  .00002931  00000-0  21556-3 0  9999,2 48148  53.0515 230.2185 0001018  84.0314 276.0791 15.06398598 52482,6925.353,95.59200000000001,547.923,546.513,0.0
48148,STARLINK-2491,PAYLOAD,2022-03-14 13:30:52,15.06403037,0.0001094,53.0516,228.433,76.9715,283.1396,0.00022002,2.998e-05,0.0,0 STARLINK-2491,1 48148U 21027BJ  22073.56310446  .00002998  00000-0  22002-3 0  9997,2 48148  53.0516 228.4330 0001094  76.9715 283.1396 15.06403037 52938,6925.339,95.59200000000001,547.962,546.447,0.0
48148,STARLINK-2491,PAYLOAD,2022-03-14 16:41:56,15.0640075,0.0001193,53.0515,227.8373,68.6887,291.4229,0.00013902,1.7899999999999998e-05,0.0,0 STARLINK-2491,1 48148U 21027BJ  22073.69579845  .00001790  00000-0  13902-3 0  9999,2 48148  53.0515 227.8373 0001193  68.6887 291.4229 15.06400750 52953,6925.346,95.59200000000001,548.0369999999998,546.385,0.0
48148,STARLINK-2491,PAYLOAD,2022-03-14 21:28:34,15.0640182,0.00012509999999999998,53.0516,226.94400000000002,69.2961,290.8162,0.00013802,1.775e-05,0.0,0 STARLINK-2491,1 48148U 21027BJ  22073.89483860  .00001775  00000-0  13802-3 0  9994,2 48148  53.0516 226.9440 0001251  69.2961 290.8162 15.06401820 52985,6925.343000000003,95.59200000000001,548.0740000000002,546.342,0.0
48148,STARLINK-2491,PAYLOAD,2022-03-15 19:46:07,15.06383843,0.0001394,53.0518,222.774,69.9591,290.1548,-0.00030695,-4.848e-05,0.0,0 STARLINK-2491,1 48148U 21027BJ  22074.82369891 -.00004848  00000-0 -30695-3 0  9990,2 48148  53.0518 222.7740 0001394  69.9591 290.1548 15.06383843 52736,6925.398,95.59299999999999,548.2280000000002,546.298,0.0
48148,STARLINK-2491,PAYLOAD,2022-03-16 13:17:04,15.0638421,0.00012880000000000001,53.0518,219.497,72.3766,287.7363,-0.00010698,-1.874e-05,0.0,0 STARLINK-2491,1 48148U 21027BJ  22075.55351948 -.00001874  00000-0 -10698-3 0  9992,2 48148  53.0518 219.4970 0001288  72.3766 287.7363 15.06384210 53230,6925.397,95.59299999999999,548.154,546.37,0.0
48148,STARLINK-2491,PAYLOAD,2022-03-16 16:28:08,15.06387677,0.00013769999999999999,53.0518,218.90200000000002,69.1621,290.9515,-3.1704e-05,-7.53e-06,0.0,0 STARLINK-2491,1 48148U 21027BJ  22075.68621321 -.00000753  00000-0 -31704-4 0  9998,2 48148  53.0518 218.9020 0001377  69.1621 290.9515 15.06387677 52866,6925.3859999999995,95.59299999999999,548.205,546.298,0.0
48148,STARLINK-2491,PAYLOAD,2022-03-17 14:45:42,15.06403067,0.0001431,53.052,214.7317,70.0912,290.0231,0.00068205,9.893e-05,0.0,0 STARLINK-2491,1 48148U 21027BJ  22076.61507202  .00009893  00000-0  68205-3 0  9990,2 48148  53.0520 214.7317 0001431  70.0912 290.0231 15.06403067 53394,6925.339,95.59200000000001,548.195,546.2130000000002,0.0
48148,STARLINK-2491,PAYLOAD,2022-03-17 21:07:51,15.06409516,0.000144,53.052,213.5403,69.2355,290.8788,0.00069475,0.00010084,0.0,0 STARLINK-2491,1 48148U 21027BJ  22076.88045722  .00010084  00000-0  69475-3 0  9997,2 48148  53.0520 213.5403 0001440  69.2355 290.8788 15.06409516 53433,6925.319,95.59200000000001,548.182,546.187,0.0
48148,STARLINK-2491,PAYLOAD,2022-03-18 13:03:15,15.06402019,0.0001436,53.0521,210.5618,69.9071,290.2072,6.0839e-05,6.25e-06,0.0,0 STARLINK-2491,1 48148U 21027BJ  22077.54392423  .00000625  00000-0  60839-4 0  9990,2 48148  53.0521 210.5618 0001436  69.9071 290.2072 15.06402019 53145,6925.342,95.59200000000001,548.202,546.2130000000002,0.0
48148,STARLINK-2491,PAYLOAD,2022-03-18 14:38:47,15.06402223,0.0001476,53.0522,210.2639,69.7608,290.3540000000001,0.0001205,1.514e-05,0.0,0 STARLINK-2491,1 48148U 21027BJ  22077.61027144  .00001514  00000-0  12050-3 0  9992,2 48148  53.0522 210.2639 0001476  69.7608 290.3540 15.06402223 53546,6925.342,95.59200000000001,548.229,546.185,0.0
48148,STARLINK-2491,PAYLOAD,2022-03-18 21:00:56,15.06402556,0.0001488,53.0523,209.0724,69.9481,290.1668,0.00021764,2.962e-05,0.0,0 STARLINK-2491,1 48148U 21027BJ  22077.87565935  .00002962  00000-0  21764-3 0  9995,2 48148  53.0523 209.0724 0001488  69.9481 290.1668 15.06402556 53584,6925.3409999999985,95.59200000000001,548.236,546.175,0.0
48148,STARLINK-2491,PAYLOAD,2022-03-19 12:56:20,15.063951800000002,0.0001512,53.0524,206.0938,75.8118,284.3039,1.7878e-06,-2.55e-06,0.0,0 STARLINK-2491,1 48148U 21027BJ  22078.53913117 -.00000255  00000-0  17878-5 0  9995,2 48148  53.0524 206.0938 0001512  75.8118 284.3039 15.06395180 53299,6925.363,95.59200000000001,548.275,546.181,0.0
48148,STARLINK-2491,PAYLOAD,2022-03-19 14:31:53,15.06394896,0.0001527,53.0524,205.796,75.4563,284.6595,-1.735e-06,-3.07e-06,0.0,0 STARLINK-2491,1 48148U 21027BJ  22078.60547825 -.00000307  00000-0 -17350-5 0  9996,2 48148  53.0524 205.7960 0001527  75.4563 284.6595 15.06394896 53693,6925.364000000001,95.59200000000001,548.2869999999998,546.172,0.0
48148,STARLINK-2491,PAYLOAD,2022-03-19 20:54:02,15.06398257,0.0001459,53.0523,204.6043,75.7681,284.347,1.6716e-05,-3.3e-07,0.0,0 STARLINK-2491,1 48148U 21027BJ  22078.87086368 -.00000033  00000-0  16716-4 0  9994,2 48148  53.0523 204.6043 0001459  75.7681 284.3470 15.06398257 53739,6925.354,95.59200000000001,548.229,546.2080000000002,0.0
48148,STARLINK-2491,PAYLOAD,2022-03-20 12:49:25,15.06406042,0.000146,53.0527,201.62599999999998,75.58,284.5351,0.00018033,2.406e-05,0.0,0 STARLINK-2491,1 48148U 21027BJ  22079.53432609  .00002406  00000-0  18033-3 0  9999,2 48148  53.0527 201.6260 0001460  75.5800 284.5351 15.06406042 53444,6925.33,95.59200000000001,548.206,546.184,0.0
48148,STARLINK-2491,PAYLOAD,2022-03-20 19:11:35,15.06405502,0.000151,53.0528,200.4358,67.2637,292.8511,0.00022655,3.095e-05,0.0,0 STARLINK-2491,1 48148U 21027BJ  22079.79971560  .00003095  00000-0  22655-3 0  9991,2 48148  53.0528 200.4358 0001510  67.2637 292.8511 15.06405502 53879,6925.3319999999985,95.59200000000001,548.242,546.151,0.0
48148,STARLINK-2491,PAYLOAD,2022-03-21 12:42:31,15.06408346,0.0001356,53.0522,197.1584,75.6617,284.4522,0.00029468,4.111e-05,0.0,0 STARLINK-2491,1 48148U 21027BJ  22080.52952806  .00004111  00000-0  29468-3 0  9995,2 48148  53.0522 197.1584 0001356  75.6617 284.4522 15.06408346 53592,6925.323,95.59200000000001,548.127,546.249,0.0
48148,STARLINK-2491,PAYLOAD,2022-03-21 14:18:03,15.06409401,0.0001359,53.0522,196.8607,72.1569,287.9568,0.00031744,4.451e-05,0.0,0 STARLINK-2491,1 48148U 21027BJ  22080.59587474  .00004451  00000-0  31744-3 0  9994,2 48148  53.0522 196.8607 0001359  72.1569 287.9568 15.06409401 53990,6925.32,95.59200000000001,548.126,546.244,0.0
48148,STARLINK-2491,PAYLOAD,2022-03-21 19:04:40,15.06406541,0.00014409999999999998,53.0523,195.9664,68.9702,291.1441,0.00019156,2.573e-05,0.0,0 STARLINK-2491,1 48148U 21027BJ  22080.79491543  .00002573  00000-0  19156-3 0  9993,2 48148  53.0523 195.9664 0001441  68.9702 291.1441 15.06406541 54022,6925.329000000002,95.59200000000001,548.191,546.196,0.0
48148,STARLINK-2491,PAYLOAD,2022-03-22 11:00:04,15.06392524,0.00013630000000000006,53.0524,192.9892,67.1664,292.9469,-0.00013956,-2.359e-05,0.0,0 STARLINK-2491,1 48148U 21027BJ  22081.45839006 -.00002359  00000-0 -13956-3 0  9993,2 48148  53.0524 192.9892 0001363  67.1664 292.9469 15.06392524 53735,6925.371,95.59299999999999,548.18,546.293,0.0
